1 29155U 06018A   11004.24988209 -.00000253  00000-0  10000-3 0  4221
2 29155 000.3477 078.7638 0002003 346.1004 053.7039 01.00274458 16934